# From MPEC 2023-KD6
P/2020 B4 (Sheppard),e,11.6089,185.9785,342.0256,7.966536,0.0438329,0.19188740,29.4278,09/21.0/2023,2000,g 10.5,4.0
# From MPEC 2023-R20
C/2020 F2 (ATLAS),h,07/14.5519/2022,163.5890,250.2959,48.3161,1.005254,8.816163,2000,4.5,4.0
# From MPEC 2021-O56
C/2020 F3 (NEOWISE),e,129.1494,61.0920,37.3786,365.7893,0.0001409,0.99919132,0.0000,07/03.8293/2020,2000,g  7.5,5.2
# From MPEC 2023-R20
C/2020 F5 (MASTER),e,52.2048,350.4990,310.6829,174.2570,0.0004285,0.97517778,0.0000,03/17.3534/2021,2000,g  6.5,3.2
# From MPEC 2020-L06
C/2020 F6 (PANSTARRS),e,174.5830,207.9056,344.5201,393.2346,0.0001264,0.99108995,0.0000,04/11.6462/2020,2000,g 14.5,2.8
# From MPEC 2023-J95
C/2020 F7 (Lemmon),e,93.9528,321.8639,227.9470,566.4596,0.0000731,0.99058679,0.0000,11/13.6600/2021,2000,g  7.0,4.0
# From MPEC 2023-J29
C/2020 F8 (SWAN),h,05/27.1632/2020,110.6112,259.8658,68.0784,1.000178,0.429570,2000,10.0,4.0
# From MPEC 2020-L06
P/2020 G1 (Pimentel),e,18.5158,240.1355,207.5862,3.608099,0.1438091,0.86050539,184.3925,09/21.0/2023,2000,g 17.0,4.0
# From MPEC 2022-YB4
C/2020 H2 (Pruyne),e,124.8817,277.6679,26.6532,188.2969,0.0003815,0.99558857,0.0000,04/27.8222/2020,2000,g 14.0,3.2
# From MPEC 2020-HM1
C/2020 H3 (Wierzchos),p,06/05.7162/2020,62.5292,30.4456,2.300288,270.6227,2000,13.5,4.0
# From MPEC 2020-L06
C/2020 H4 (Leonard),e,84.4939,307.6136,117.5399,47.82751,0.0029798,0.98067511,0.0000,08/29.6558/2020,2000,g 15.0,3.2
# From MPEC 2023-N01
C/2020 H5 (Robinson),e,70.2571,210.6278,326.3220,4059,0.0000038,0.99769854,0.0000,12/10.5255/2020,2000,g  5.0,4.0
# From MPEC 2023-R20
C/2020 H6 (ATLAS),e,79.9778,213.7214,20.2863,5528,0.0000024,0.99914961,0.0000,09/30.5265/2021,2000,g  8.0,3.2
# From MPEC 2020-KB7
C/2020 H7 (Lemmon),e,135.9235,323.5194,82.6780,1405,0.0000187,0.99685380,0.0000,06/02.9510/2020,2000,g 11.0,4.0
# From MPEC 2021-N06
C/2020 H8 (PANSTARRS),e,99.6967,68.4338,128.9281,599.2931,0.0000672,0.99220101,0.0000,06/04.5303/2020,2000,g 10.5,4.0
# From MPEC 2022-ED3
A/2020 H9,e,137.8797,213.1856,312.8117,369.2680,0.0001389,0.99303497,0.0000,12/21.7612/2019,2000,g 18.0,2.0
# From MPEC 2023-HN7
C/2020 H11 (PANSTARRS-Lemmon),h,09/14.8892/2020,151.3971,303.0397,91.4576,1.002077,7.626301,2000,8.5,4.0
# From MPEC 2023-KD6
C/2020 J1 (SONEAR),h,04/18.6161/2021,142.3058,226.6098,341.7271,1.000704,3.352134,2000,8.5,3.2
# From MPEC 2023-R20
C/2020 K1 (PANSTARRS),e,89.6727,94.3581,213.9864,38249,0.0000001,0.99991965,0.0000,05/09.0906/2023,2000,g  5.5,4.0
# From MPEC 2021-N06
C/2020 K2 (PANSTARRS),h,08/06.3464/2020,91.0221,288.4050,67.3523,1.003806,8.880064,2000,10.8,4.0
# From MPEC 2020-KF9
C/2020 K3 (Leonard),p,06/01.0032/2020,129.0152,64.4924,1.583069,28.3546,2000,14.5,4.0
# From MPEC 2020-L06
C/2020 K4 (PANSTARRS),e,125.5845,264.2197,308.8684,23.97165,0.0083976,0.92687492,10.8826,09/21.0/2023,2000,g 16.5,4.0
# From MPEC 2021-R75
C/2020 K5 (PANSTARRS),h,06/05.3748/2021,67.1018,86.1573,249.6186,1.001310,1.537247,2000,11.0,4.0
# From MPEC 2023-N01
C/2020 K6 (Rankin),h,09/15.8279/2021,103.6480,291.5633,44.3384,1.003660,5.868829,2000,8.0,4.0
# From MPEC 2023-A50
C/2020 K7 (PANSTARRS),e,32.0430,286.0900,358.2424,97.92992,0.0010170,0.93470391,1.4485,09/21.0/2023,2000,g  8.0,4.0
# From MPEC 2021-P47
C/2020 K8 (Catalina-ATLAS),h,09/14.9916/2020,31.4208,181.5217,259.9590,1.000203,0.471397,2000,15.0,3.2
# From MPEC 2021-BE3
P/2020 K9 (Lemmon-PANSTARRS),e,23.2065,166.2463,197.0949,4.203755,0.1143531,0.32114911,108.6987,09/21.0/2023,2000,g 12.5,4.0
# From MPEC 2023-C45
P/2020 M1 (PANSTARRS),e,8.5346,142.6105,72.6500,5.316860,0.0803935,0.47327613,109.8171,09/21.0/2023,2000,g 14.5,4.0
# From MPEC 2022-H30
C/2020 M3 (ATLAS),e,23.4799,71.1394,328.5931,27.14670,0.0069683,0.95325621,7.3867,09/21.0/2023,2000,g 14.5,4.0
# From MPEC 2023-N01
A/2020 M4,h,11/24.1107/2020,160.1233,348.6235,104.6196,1.001095,5.949540,2000,14.5,2.0
# From MPEC 2023-Q33
P/2020 MK4 (PANSTARRS),e,6.7933,0.7119,98.0503,6.211125,0.0636720,0.01244309,272.3015,09/21.0/2023,2000,g  8.0,4.0
# From MPEC 2023-FK0
C/2020 M5 (ATLAS),h,08/19.8609/2021,93.2146,352.0856,126.2889,1.000368,3.001979,2000,9.0,4.0
# From MPEC 2022-GA9
C/2020 N1 (PANSTARRS),h,03/12.4470/2021,29.7362,279.9097,186.7652,1.000500,1.317879,2000,12.5,4.0
# From MPEC 2021-P47
C/2020 N2 (ATLAS),e,161.0324,257.1789,331.3169,104.6965,0.0009200,0.98288865,0.0000,08/24.2316/2020,2000,g 16.0,3.2
# From MPEC 2023-R20
C/2020 O2 (Amaral),h,08/28.3902/2021,71.7617,256.7802,10.2920,1.001301,4.862189,2000,8.0,3.2
# From MPEC 2023-C45
P/2020 O3 (PANSTARRS),e,8.4444,266.8184,81.6030,4.647410,0.0983757,0.10294664,94.8626,09/21.0/2023,2000,g 12.0,4.0
# From MPEC 2021-BE3
C/2020 P1 (NEOWISE),h,10/20.5570/2020,45.1981,53.4788,8.8932,1.000337,0.340821,2000,14.0,3.2
# From MPEC 2023-O39
C/2020 P3 (ATLAS),h,04/21.6064/2021,61.8891,19.4659,82.2856,1.001967,6.812723,2000,6.0,4.0
# From MPEC 2022-PB4
C/2020 PV6 (PANSTARRS),e,128.2178,329.1486,71.3734,42.07104,0.0036118,0.94546346,2.6181,09/21.0/2023,2000,g 10.0,4.0
# From MPEC 2022-L66
C/2020 Q1 (Borisov),e,142.9513,52.3802,9.9731,61.09896,0.0020637,0.97841177,0.0000,08/14.4041/2020,2000,g 14.0,4.0
# From MPEC 2023-CD7
C/2020 Q2 (PANSTARRS),e,3.3359,179.8252,118.2806,10.63565,0.0284157,0.49117732,37.8219,09/21.0/2023,2000,g 12.0,3.2
# From MPEC 2022-X67
C/2020 R2 (PANSTARRS),e,53.2282,195.0935,211.8130,416.0423,0.0001161,0.98871847,0.0000,02/25.0344/2022,2000,g  9.0,4.0
# From MPEC 2022-K19
C/2020 R4 (ATLAS),e,164.4454,323.2690,46.6639,99.75886,0.0009892,0.98971578,0.0000,03/02.2658/2021,2000,g 13.5,4.0
# From MPEC 2023-C45
P/2020 R5 (PANSTARRS),e,11.4431,272.9619,82.6698,4.988700,0.0884551,0.31431784,106.9875,09/21.0/2023,2000,g  9.5,6.0
# From MPEC 2021-Y10
C/2020 R6 (Rankin),e,82.8153,12.1800,271.9951,308.3506,0.0001820,0.98983201,0.0000,09/08.1676/2019,2000,g 11.0,4.0
# From MPEC 2023-R20
C/2020 R7 (ATLAS),h,09/16.2516/2022,114.8996,268.2893,347.8415,1.000266,2.955902,2000,7.0,3.2
# From MPEC 2021-BE3
P/2020 S1 (PANSTARRS),e,13.7255,129.4591,255.0662,5.995121,0.0671440,0.50771330,65.5568,09/21.0/2023,2000,g 14.0,4.0
# From MPEC 2022-ST7
C/2020 S2 (PANSTARRS),e,22.4045,197.6624,202.3629,10.22930,0.0301256,0.82818853,30.2074,09/21.0/2023,2000,g 17.0,4.0
# From MPEC 2022-C56
C/2020 S3 (Erasmus),e,20.0167,222.5993,350.0826,149.1401,0.0005411,0.99734446,0.0000,12/11.8321/2020,2000,g 13.5,3.2
# From MPEC 2023-O39
C/2020 S4 (PANSTARRS),h,02/09.2402/2023,20.5680,117.7161,20.9940,1.001526,3.369701,2000,8.5,3.2
# From MPEC 2021-BE3
P/2020 S5 (PANSTARRS),e,12.3448,315.9937,53.2604,4.055078,0.1206994,0.33835531,137.3356,09/21.0/2023,2000,g 14.5,4.0
# From MPEC 2021-BE3
P/2020 S7 (PANSTARRS),e,16.0842,328.0310,40.6234,5.032083,0.0873137,0.41056714,90.4742,09/21.0/2023,2000,g 14.5,4.0
# From MPEC 2021-P47
C/2020 S8 (Lemmon),e,108.5274,24.0694,160.2498,258.1631,0.0002376,0.99085728,0.0000,04/10.7801/2021,2000,g 12.5,4.0
# From MPEC 2022-ST7
C/2020 T2 (Palomar),e,27.8550,82.9648,150.5116,295.0987,0.0001944,0.99302805,0.0000,07/10.8625/2021,2000,g 11.0,3.2
# From MPEC 2021-N06
P/2020 T3 (PANSTARRS),e,7.3002,73.9856,357.0449,3.516771,0.1494473,0.59225473,145.4116,09/21.0/2023,2000,g 18.0,3.2
# From MPEC 2021-N06
C/2020 T4 (PANSTARRS),h,07/05.4144/2021,83.8487,50.6171,79.6022,1.000341,2.190914,2000,13.0,3.2
# From MPEC 2021-BE3
C/2020 T5 (Lemmon),e,66.5502,237.8338,90.3476,719.8390,0.0000510,0.99737118,0.0000,10/09.1452/2020,2000,g 16.0,4.0
# From MPEC 2021-N06
P/2020 U2 (PANSTARRS),e,6.4189,342.8722,84.6630,3.777928,0.1342220,0.51126723,134.0512,09/21.0/2023,2000,g 18.0,4.0
# From MPEC 2021-W31
C/2020 U3 (Rankin),e,30.1525,282.6224,124.3783,66.81228,0.0018048,0.96590671,1.7267,09/21.0/2023,2000,g 15.0,4.0
# From MPEC 2023-R20
C/2020 U4 (PANSTARRS),h,04/09.3156/2022,167.0189,120.3487,70.0461,1.000408,5.358570,2000,7.0,4.0
# From MPEC 2023-R20
C/2020 U5 (PANSTARRS),e,97.2787,107.3225,75.4386,3628,0.0000045,0.99896466,0.0000,04/27.9731/2022,2000,g  8.0,4.0
# From MPEC 2023-R20
C/2020 V2 (ZTF),h,05/08.5002/2023,131.6116,212.3710,162.4018,1.001130,2.227658,2000,4.9,4.0
# From MPEC 2023-D72
P/2020 V3 (PANSTARRS),e,23.0331,198.2520,249.4265,8.389826,0.0405578,0.25725534,38.6417,09/21.0/2023,2000,g  8.3,4.0
# From MPEC 2023-KD6
P/2020 V4 (Rankin),e,14.2446,203.4820,257.0569,9.373735,0.0343427,0.45074187,27.2831,09/21.0/2023,2000,g  9.0,4.0
# From MPEC 2021-BE3
P/2020 W1 (Rankin),e,10.7852,124.2728,265.2366,7.217570,0.0508297,0.26633815,64.0250,09/21.0/2023,2000,g 10.0,4.0
# From MPEC 2021-BE3
C/2020 W5 (Lemmon),h,11/30.1713/2020,88.6048,75.4585,24.5146,1.000922,3.366023,2000,15.0,4.0
# From MPEC 2023-R20
P/2020 WJ5 (Lemmon),e,22.2924,177.8063,338.1090,6.015194,0.0668082,0.17142798,54.2960,09/21.0/2023,2000,g  8.5,4.0
# From MPEC 2021-P47
P/2020 X1 (ATLAS),e,31.6940,55.9837,323.4723,4.531831,0.1021630,0.36536358,118.2064,09/21.0/2023,2000,g 13.0,4.0
# From MPEC 2023-R20
C/2020 X2 (ATLAS),e,18.1847,105.4063,347.3957,16.46863,0.0147475,0.76761930,15.3187,09/21.0/2023,2000,g 10.6,4.0
# From MPEC 2021-S45
C/2020 X4 (Leonard),e,80.6112,161.8862,140.3138,40.60265,0.0038095,0.87135403,3.9589,09/21.0/2023,2000,g  9.0,4.0
# From MPEC 2023-R20
C/2020 Y2 (ATLAS),e,101.2775,26.5200,266.3345,4073,0.0000038,0.99922928,0.0000,06/18.5280/2022,2000,g  6.5,4.0
# From MPEC 2021-R75
C/2020 Y3 (ATLAS),e,83.1025,191.4366,341.9262,141.2265,0.0005873,0.98587361,0.0000,12/03.2872/2020,2000,g 13.5,4.0
# From MPEC 2023-CD7
C/2021 A1 (Leonard),h,01/03.2959/2022,132.7274,255.9026,225.1265,1.000050,0.616008,2000,8.5,4.0
# From MPEC 2022-F14
C/2021 A2 (NEOWISE),e,106.9961,125.1758,338.7717,230.3994,0.0002818,0.99387137,0.0000,01/22.3497/2021,2000,g 13.5,4.0
# From MPEC 2022-ED3
C/2021 A4 (NEOWISE),e,111.5446,307.1094,204.7127,42.39951,0.0035700,0.97292828,0.0000,03/19.6552/2021,2000,g 16.0,4.0
# From MPEC 2021-BE3
P/2021 A5 (PANSTARRS),e,18.1824,328.7548,61.3911,3.047577,0.1852559,0.13995121,193.0336,09/21.0/2023,2000,g 15.0,4.0
# From MPEC 2023-O39
